STARLINK-1207
1 15380C 20019W   21326.15798478 -.00015551  00000-0 -10418-2 0  3264
2 15380  53.0528 348.0431 0000894 108.3788 176.1654 15.06419512    19
